CCSDS_OMM_VERS = 2.0
CREATION_DATE  = 
ORIGINATOR     = 

OBJECT_NAME    = ISS OBJECT YC
OBJECT_ID      = 1998-067YC
CENTER_NAME    = EARTH
REF_FRAME      = TEME
TIME_SYSTEM    = UTC
MEAN_ELEMENT_THEORY = SGP/SGP4

EPOCH          = 2026-02-09T04:15:08.823744
MEAN_MOTION    = 15.49703500
ECCENTRICITY   = .00078552
INCLINATION    = 51.6310
RA_OF_ASC_NODE = 213.2632
ARG_OF_PERICENTER = 67.3700
MEAN_ANOMALY   = 292.8119

EPHEMERIS_TYPE = 0
CLASSIFICATION_TYPE = U
NORAD_CAT_ID   = 67686
ELEMENT_SET_NO = 999
REV_AT_EPOCH   = 36
BSTAR          = .96363468E-3
MEAN_MOTION_DOT = .54398E-3
MEAN_MOTION_DDOT = 0

CCSDS_OMM_VERS = 2.0
CREATION_DATE  = 
ORIGINATOR     = 

OBJECT_NAME    = CORAL
OBJECT_ID      = 1998-067YD
CENTER_NAME    = EARTH
REF_FRAME      = TEME
TIME_SYSTEM    = UTC
MEAN_ELEMENT_THEORY = SGP/SGP4

EPOCH          = 2026-02-09T01:09:47.607552
MEAN_MOTION    = 15.49563290
ECCENTRICITY   = .0007943
INCLINATION    = 51.6310
RA_OF_ASC_NODE = 213.9027
ARG_OF_PERICENTER = 68.6513
MEAN_ANOMALY   = 291.5322

EPHEMERIS_TYPE = 0
CLASSIFICATION_TYPE = U
NORAD_CAT_ID   = 67687
ELEMENT_SET_NO = 999
REV_AT_EPOCH   = 26
BSTAR          = .64179077E-3
MEAN_MOTION_DOT = .35813E-3
MEAN_MOTION_DDOT = 0

CCSDS_OMM_VERS = 2.0
CREATION_DATE  = 
ORIGINATOR     = 

OBJECT_NAME    = ISS OBJECT YE
OBJECT_ID      = 1998-067YE
CENTER_NAME    = EARTH
REF_FRAME      = TEME
TIME_SYSTEM    = UTC
MEAN_ELEMENT_THEORY = SGP/SGP4

EPOCH          = 2026-02-08T22:03:44.589312
MEAN_MOTION    = 15.49647851
ECCENTRICITY   = .00078244
INCLINATION    = 51.6313
RA_OF_ASC_NODE = 214.5398
ARG_OF_PERICENTER = 66.8805
MEAN_ANOMALY   = 293.3008

EPHEMERIS_TYPE = 0
CLASSIFICATION_TYPE = U
NORAD_CAT_ID   = 67688
ELEMENT_SET_NO = 999
REV_AT_EPOCH   = 24
BSTAR          = .76589477E-3
MEAN_MOTION_DOT = .42993E-3
MEAN_MOTION_DDOT = 0

CCSDS_OMM_VERS = 2.0
CREATION_DATE  = 
ORIGINATOR     = 

OBJECT_NAME    = PRC TEST SPACECRAFT 4
OBJECT_ID      = 2026-024A
CENTER_NAME    = EARTH
REF_FRAME      = TEME
TIME_SYSTEM    = UTC
MEAN_ELEMENT_THEORY = SGP/SGP4

EPOCH          = 2026-02-09T05:34:31.634976
MEAN_MOTION    = 15.31882467
ECCENTRICITY   = .01758824
INCLINATION    = 49.9875
RA_OF_ASC_NODE = 157.2027
ARG_OF_PERICENTER = 156.7050
MEAN_ANOMALY   = 204.2003

EPHEMERIS_TYPE = 0
CLASSIFICATION_TYPE = U
NORAD_CAT_ID   = 67689
ELEMENT_SET_NO = 999
REV_AT_EPOCH   = 32
BSTAR          = .17881145E-3
MEAN_MOTION_DOT = .8671E-4
MEAN_MOTION_DDOT = 0

CCSDS_OMM_VERS = 2.0
CREATION_DATE  = 
ORIGINATOR     = 

OBJECT_NAME    = CZ-2F R/B
OBJECT_ID      = 2026-024B
CENTER_NAME    = EARTH
REF_FRAME      = TEME
TIME_SYSTEM    = UTC
MEAN_ELEMENT_THEORY = SGP/SGP4

EPOCH          = 2026-02-08T15:29:03.088032
MEAN_MOTION    = 15.33016351
ECCENTRICITY   = .0178096
INCLINATION    = 49.9868
RA_OF_ASC_NODE = 160.1378
ARG_OF_PERICENTER = 154.4940
MEAN_ANOMALY   = 206.4941

EPHEMERIS_TYPE = 0
CLASSIFICATION_TYPE = U
NORAD_CAT_ID   = 67690
ELEMENT_SET_NO = 999
REV_AT_EPOCH   = 23
BSTAR          = .19429E-3
MEAN_MOTION_DOT = .10042E-3
MEAN_MOTION_DDOT = 0

CCSDS_OMM_VERS = 2.0
CREATION_DATE  = 
ORIGINATOR     = 

OBJECT_NAME    = CZ-2F DEB
OBJECT_ID      = 2026-024C
CENTER_NAME    = EARTH
REF_FRAME      = TEME
TIME_SYSTEM    = UTC
MEAN_ELEMENT_THEORY = SGP/SGP4

EPOCH          = 2026-02-07T09:44:59.193024
MEAN_MOTION    = 15.45551762
ECCENTRICITY   = .01135604
INCLINATION    = 49.9467
RA_OF_ASC_NODE = 166.3853
ARG_OF_PERICENTER = 147.5975
MEAN_ANOMALY   = 213.2028

EPHEMERIS_TYPE = 0
CLASSIFICATION_TYPE = U
NORAD_CAT_ID   = 67691
ELEMENT_SET_NO = 999
REV_AT_EPOCH   = 4
BSTAR          = .22491436E-3
MEAN_MOTION_DOT = .13633E-3
MEAN_MOTION_DDOT = 0

CCSDS_OMM_VERS = 2.0
CREATION_DATE  = 
ORIGINATOR     = 

OBJECT_NAME    = CZ-2F DEB
OBJECT_ID      = 2026-024D
CENTER_NAME    = EARTH
REF_FRAME      = TEME
TIME_SYSTEM    = UTC
MEAN_ELEMENT_THEORY = SGP/SGP4

EPOCH          = 2026-02-07T08:11:28.205952
MEAN_MOTION    = 15.42131272
ECCENTRICITY   = .01349549
INCLINATION    = 49.9172
RA_OF_ASC_NODE = 166.7551
ARG_OF_PERICENTER = 145.7017
MEAN_ANOMALY   = 215.2750

EPHEMERIS_TYPE = 0
CLASSIFICATION_TYPE = U
NORAD_CAT_ID   = 67692
ELEMENT_SET_NO = 999
REV_AT_EPOCH   = 3
BSTAR          = .22597737E-3
MEAN_MOTION_DOT = .13282E-3
MEAN_MOTION_DDOT = 0

