ISS OBJECT YC           
1 67686U 98067YC  26040.17718546  .00054398  00000+0  96363-3 0  9992
2 67686  51.6310 213.2632 0007855  67.3700 292.8119 15.49703500   363
CORAL                   
1 67687U 98067YD  26040.04846768  .00035813  00000+0  64179-3 0  9998
2 67687  51.6310 213.9027 0007943  68.6513 291.5322 15.49563290   264
ISS OBJECT YE           
1 67688U 98067YE  26039.91926608  .00042993  00000+0  76589-3 0  9990
2 67688  51.6313 214.5398 0007824  66.8805 293.3008 15.49647851   243
PRC TEST SPACECRAFT 4   
1 67689U 26024A   26040.23231059  .00008671  00000+0  17881-3 0  9996
2 67689  49.9875 157.2027 0175882 156.7050 204.2003 15.31882467   320
CZ-2F R/B               
1 67690U 26024B   26039.64517463  .00010042  00000+0  19429-3 0  9992
2 67690  49.9868 160.1378 0178096 154.4940 206.4941 15.33016351   237
CZ-2F DEB               
1 67691U 26024C   26038.40624066  .00013633  00000+0  22491-3 0  9996
2 67691  49.9467 166.3853 0113560 147.5975 213.2028 15.45551762    49
CZ-2F DEB               
1 67692U 26024D   26038.34129868  .00013282  00000+0  22598-3 0  9998
2 67692  49.9172 166.7551 0134954 145.7017 215.2750 15.42131272    39
